IRIDIUM 112             
1 41925U 17003J   24050.81812399  .00000449  00000+0  15326-3 0  9990
2 41925  86.3911  82.8682 0002216  87.2062 272.9387 14.34220169371675
IRIDIUM 111             
1 41926U 17003K   24050.80543671  .00000103  00000+0  29581-4 0  9990
2 41926  86.3913  82.9256 0001939  89.3841 270.7577 14.34220509371658
IRIDIUM 113             
1 42803U 17039A   24050.78540625  .00000347  00000+0  11668-3 0  9993
2 42803  86.3996 316.7077 0001972  78.0171 282.1245 14.34217031349583
IRIDIUM 123             
1 42804U 17039B   24050.89665268  .00000290  00000+0  96627-4 0  9993
2 42804  86.4020 348.1463 0002096  82.2090 277.9344 14.34216243348367
IRIDIUM 120             
1 42805U 17039C   24050.98836999  .00000162  00000+0  50635-4 0  9992
2 42805  86.3986 316.5153 0002099  84.4299 275.7136 14.34217838349605
IRIDIUM 115             
1 42806U 17039D   24050.78640628  .00000749  00000+0  21656-3 0  9994
2 42806  86.4524 316.6070 0001987  80.4776 279.6649 14.43296500351894
IRIDIUM 118             
1 42807U 17039E   24050.78882648  .00000381  00000+0  12901-3 0  9990
2 42807  86.4020 348.1932 0002180  84.5791 275.5654 14.34219569348348
IRIDIUM 117             
1 42808U 17039F   24050.87762093 -.00000386  00000+0 -14485-3 0  9998
2 42808  86.4018 348.1217 0001822  82.9358 277.2045 14.34213720348385
